{"type":"FeatureCollection","attribution":"District boundaries: geoBoundaries gbOpen LKA ADM2 (2017), (c) OpenStreetMap contributors, licensed under the Open Database License (ODbL) 1.0; simplified for display.","depots":[{"name":"Peliyagoda","lat":6.9709,"lng":79.889,"basis":"Peliyagoda town centre; approximate. The depot's exact site is not in the competition data."},{"name":"Kandy","lat":7.2906,"lng":80.6337,"basis":"Kandy town centre; approximate. The depot's exact site is not in the competition data."}],"features":[{"type":"Feature","properties":{"district":"Ampara","label":[81.6851,7.1289]},"geometry":{"type":"Polygon","coordinates":[[[81.7079,6.5107],[81.7401,6.5742],[81.7629,6.5965],[81.7607,6.6086],[81.7777,6.6469],[81.771,6.6595],[81.773,6.6717],[81.8002,6.7082],[81.8027,6.7336],[81.826,6.7642],[81.8191,6.7884],[81.8229,6.8137],[81.8402,6.837],[81.8322,6.852],[81.8463,6.872],[81.8454,6.9106],[81.879,7.0223],[81.8689,7.0489],[81.8571,7.1215],[81.8698,7.2751],[81.8658,7.3244],[81.8387,7.415],[81.8234,7.4369],[81.8144,7.4804],[81.7935,7.4705],[81.7764,7.4819],[81.7607,7.4598],[81.725,7.4553],[81.6905,7.4209],[81.6741,7.4139],[81.6703,7.4012],[81.6636,7.3987],[81.6606,7.4725],[81.648,7.5025],[81.6496,7.5251],[81.6192,7.5081],[81.5182,7.5087],[81.4943,7.5152],[81.4992,7.5216],[81.452,7.5428],[81.4335,7.57],[81.4475,7.6197],[81.4456,7.642],[81.3834,7.6567],[81.3678,7.6673],[81.3287,7.7195],[81.3261,7.7334],[81.2632,7.7358],[81.2544,7.7308],[81.2413,7.7391],[81.2337,7.722],[81.2394,7.7134],[81.2394,7.6798],[81.2226,7.6721],[81.2208,7.6537],[81.214,7.647],[81.1979,7.6611],[81.1176,7.6899],[81.0944,7.7252],[81.0687,7.7308],[81.0493,7.7188],[80.9891,7.7217],[80.9926,7.6987],[80.9875,7.6888],[80.9947,7.6615],[80.9817,7.6432],[80.9779,7.625],[80.9856,7.6112],[81.0133,7.5959],[81.0155,7.5529],[81.0295,7.5379],[81.0418,7.5053],[81.0556,7.5061],[81.0648,7.5152],[81.0763,7.5121],[81.1132,7.5449],[81.1636,7.5699],[81.1879,7.5741],[81.2054,7.5554],[81.2068,7.5163],[81.1989,7.5009],[81.1992,7.4715],[81.1826,7.4442],[81.201,7.3963],[81.1937,7.3776],[81.2201,7.3329],[81.2372,7.3418],[81.2461,7.3353],[81.2455,7.326],[81.2716,7.2913],[81.2672,7.2823],[81.2774,7.2554],[81.2866,7.2486],[81.2855,7.2406],[81.3051,7.2574],[81.323,7.2631],[81.3207,7.3375],[81.3445,7.3356],[81.367,7.3435],[81.3651,7.3575],[81.3745,7.3585],[81.3864,7.3709],[81.3737,7.3976],[81.375,7.4104],[81.3888,7.4079],[81.4057,7.4167],[81.4075,7.4331],[81.4219,7.4358],[81.4564,7.4584],[81.4788,7.4547],[81.462,7.4304],[81.4771,7.4217],[81.4724,7.393],[81.4908,7.3378],[81.479,7.3247],[81.5188,7.2903],[81.5276,7.2536],[81.5231,7.2429],[81.534,7.24],[81.5531,7.2176],[81.5224,7.1976],[81.5003,7.1489],[81.5134,7.1363],[81.5113,7.1179],[81.5211,7.0975],[81.5961,7.0696],[81.6142,7.0685],[81.6192,7.0492],[81.6072,7.0259],[81.6209,6.9984],[81.6178,6.9791],[81.6372,6.96],[81.6287,6.913],[81.6083,6.58],[81.6209,6.5711],[81.638,6.5422],[81.6623,6.5404],[81.6772,6.5197],[81.7079,6.5107]]]}},{"type":"Feature","properties":{"district":"Anuradhapura","label":[80.4449,8.3553]},"geometry":{"type":"Polygon","coordinates":[[[80.0324,8.5272],[80.0428,8.4934],[80.0319,8.4653],[80.0197,8.445],[79.9901,8.4232],[79.9905,8.4139],[79.9771,8.3975],[79.9562,8.3943],[79.9523,8.3751],[79.9748,8.3371],[79.9819,8.2773],[79.9957,8.2542],[80.0001,8.2285],[80.0276,8.227],[80.0378,8.2379],[80.0619,8.2198],[80.0795,8.2236],[80.0865,8.2107],[80.0967,8.2095],[80.1019,8.1973],[80.123,8.1813],[80.1839,8.1621],[80.1882,8.1515],[80.2071,8.1535],[80.2151,8.1436],[80.2512,8.1332],[80.2664,8.1154],[80.3081,8.1171],[80.37,8.0578],[80.3924,8.048],[80.4047,8.0549],[80.4135,8.0485],[80.4194,8.0436],[80.4154,8.0072],[80.426,7.9629],[80.4187,7.9533],[80.4336,7.9479],[80.4475,7.9551],[80.4611,7.9453],[80.4659,7.9047],[80.4798,7.8773],[80.4691,7.85],[80.479,7.841],[80.4839,7.8231],[80.4998,7.8164],[80.4999,7.8261],[80.5244,7.8273],[80.5652,7.8489],[80.576,7.8684],[80.5902,7.8672],[80.5998,7.8558],[80.6228,7.8686],[80.6229,7.8826],[80.639,7.8885],[80.6324,7.9002],[80.6541,7.9152],[80.6529,7.9466],[80.6587,7.9601],[80.6685,7.9634],[80.6823,7.9567],[80.7059,7.9918],[80.7561,8.0123],[80.7497,8.0221],[80.777,8.0659],[80.7587,8.0686],[80.7594,8.1505],[80.7854,8.2041],[80.7878,8.2312],[80.8044,8.2785],[80.8991,8.2809],[80.9114,8.3264],[80.9242,8.3369],[80.9273,8.3735],[80.9538,8.4392],[80.9726,8.4601],[80.9717,8.4686],[80.9909,8.4748],[80.9863,8.4847],[80.9633,8.4857],[80.9633,8.4986],[80.9472,8.5075],[80.944,8.5518],[80.9171,8.5848],[80.9159,8.6051],[80.8939,8.6219],[80.8934,8.6461],[80.9134,8.681],[80.8914,8.7225],[80.8906,8.7434],[80.8788,8.7527],[80.8796,8.7685],[80.8831,8.7886],[80.9109,8.8236],[80.9126,8.8369],[80.8715,8.8821],[80.8535,8.887],[80.8123,8.9153],[80.783,8.9202],[80.753,8.9051],[80.7119,8.8985],[80.6675,8.8714],[80.5954,8.8697],[80.5923,8.8479],[80.6271,8.8371],[80.6372,8.8154],[80.6513,8.8034],[80.6514,8.7904],[80.6339,8.7799],[80.6185,8.7526],[80.6012,8.7444],[80.5893,8.7221],[80.5736,8.7167],[80.57,8.7004],[80.5302,8.6728],[80.5197,8.6588],[80.5067,8.6584],[80.4513,8.6925],[80.4242,8.674],[80.4219,8.662],[80.4105,8.6595],[80.3994,8.6341],[80.381,8.6218],[80.38,8.5838],[80.3696,8.575],[80.3518,8.5728],[80.3376,8.546],[80.2885,8.5606],[80.2745,8.611],[80.2499,8.6162],[80.2372,8.629],[80.2354,8.6804],[80.1138,8.6494],[80.0801,8.6536],[80.0444,8.6732],[80.0553,8.637],[80.0504,8.5219],[80.0324,8.5272]]]}},{"type":"Feature","properties":{"district":"Badulla","label":[81.0895,7.0824]},"geometry":{"type":"Polygon","coordinates":[[[80.9779,7.625],[80.9711,7.534],[80.9752,7.427],[80.9695,7.4133],[80.9827,7.3937],[80.9763,7.3629],[81.0165,7.2334],[81.0082,7.2165],[80.9833,7.2126],[80.9729,7.1963],[80.9425,7.1971],[80.9613,7.1571],[80.9607,7.1421],[80.9519,7.1451],[80.949,7.1386],[80.9499,7.1298],[80.9647,7.1209],[80.9513,7.1014],[80.9532,7.0902],[80.9651,7.0777],[80.9292,7.0382],[80.9195,6.9909],[80.8985,6.9773],[80.8749,6.9737],[80.8622,6.9782],[80.8354,6.9558],[80.8268,6.9259],[80.8123,6.9175],[80.7818,6.9216],[80.7759,6.913],[80.81,6.9017],[80.8118,6.8798],[80.824,6.8765],[80.8205,6.8621],[80.8375,6.8451],[80.8316,6.8337],[80.8139,6.8285],[80.8175,6.8193],[80.8372,6.8119],[80.8343,6.8027],[80.8252,6.7931],[80.8084,6.7919],[80.8115,6.7557],[80.827,6.7617],[80.8347,6.7455],[80.8545,6.7464],[80.8579,6.7415],[80.8503,6.7301],[80.8549,6.7194],[80.8118,6.7036],[80.8255,6.6896],[80.8297,6.6696],[80.8476,6.6666],[80.8574,6.6575],[80.8636,6.6656],[80.8808,6.6638],[80.8907,6.6756],[80.9079,6.6785],[80.915,6.6948],[80.928,6.6876],[80.9401,6.6904],[80.9396,6.6787],[80.9519,6.6719],[80.9534,6.6552],[80.9689,6.6545],[80.9764,6.645],[80.979,6.6171],[80.9909,6.6206],[80.9993,6.615],[80.9956,6.5751],[81.0227,6.5422],[81.0251,6.5732],[81.0338,6.5835],[81.0408,6.5906],[81.0624,6.5785],[81.0622,6.5992],[81.0764,6.6112],[81.0862,6.6096],[81.0648,6.6332],[81.061,6.6515],[81.0647,6.6998],[81.078,6.7073],[81.085,6.728],[81.0711,6.7375],[81.056,6.7345],[81.0515,6.739],[81.0648,6.7618],[81.0611,6.7828],[81.0658,6.8137],[81.0936,6.8091],[81.0989,6.8125],[81.0966,6.8279],[81.1186,6.8293],[81.1374,6.8387],[81.118,6.862],[81.11,6.8632],[81.1126,6.8726],[81.1728,6.9011],[81.1828,6.9288],[81.187,6.9213],[81.2038,6.9214],[81.2067,6.9398],[81.2264,6.9457],[81.2203,6.9602],[81.2343,6.9657],[81.2318,6.9886],[81.2448,7.0089],[81.2417,7.0532],[81.2293,7.0844],[81.2191,7.0806],[81.2128,7.0967],[81.1687,7.0841],[81.159,7.1142],[81.1416,7.137],[81.1271,7.1452],[81.1239,7.1645],[81.1404,7.1883],[81.1521,7.1948],[81.1644,7.1735],[81.1853,7.1725],[81.1887,7.1911],[81.2069,7.2015],[81.2359,7.2395],[81.2315,7.2676],[81.2705,7.2769],[81.2716,7.2913],[81.2455,7.326],[81.2461,7.3353],[81.2372,7.3418],[81.2201,7.3329],[81.1937,7.3776],[81.201,7.3963],[81.1826,7.4442],[81.1992,7.4715],[81.1989,7.5009],[81.2068,7.5163],[81.2054,7.5554],[81.1987,7.5644],[81.1879,7.5741],[81.1636,7.5699],[81.1132,7.5449],[81.0763,7.5121],[81.0648,7.5152],[81.0556,7.5061],[81.0418,7.5053],[81.0295,7.5379],[81.0155,7.5529],[81.0133,7.5959],[80.9856,7.6112],[80.9779,7.625]]]}},{"type":"Feature","properties":{"district":"Batticaloa","label":[81.4107,7.8362]},"geometry":{"type":"Polygon","coordinates":[[[81.8144,7.4804],[81.7849,7.6044],[81.706,7.7441],[81.6879,7.763],[81.6691,7.7668],[81.6433,7.7874],[81.6199,7.8288],[81.6053,7.824],[81.5813,7.8451],[81.5685,7.8704],[81.5637,7.899],[81.5693,7.918],[81.5829,7.9198],[81.5635,7.9269],[81.5573,7.9432],[81.5415,7.9273],[81.5218,7.9266],[81.5128,7.9137],[81.5216,7.9335],[81.5369,7.9321],[81.5487,7.9408],[81.5405,7.9704],[81.5532,7.9884],[81.5468,7.994],[81.5311,7.9833],[81.5091,7.9967],[81.4912,8.0122],[81.4729,8.0426],[81.4576,8.099],[81.465,8.1109],[81.4542,8.1131],[81.4415,8.1354],[81.4327,8.167],[81.436,8.1777],[81.4258,8.1884],[81.4078,8.2485],[81.3557,8.2573],[81.3587,8.2649],[81.3538,8.2693],[81.3231,8.2616],[81.3116,8.252],[81.3064,8.0294],[81.3401,7.957],[81.34,7.9374],[81.3079,7.9374],[81.2893,7.9466],[81.2747,7.9368],[81.2531,7.9363],[81.2369,7.9198],[81.237,7.8887],[81.2278,7.8671],[81.2327,7.8435],[81.225,7.8235],[81.227,7.781],[81.2413,7.7391],[81.2544,7.7308],[81.2632,7.7358],[81.3261,7.7334],[81.3287,7.7195],[81.3678,7.6673],[81.3834,7.6567],[81.4456,7.642],[81.4475,7.6197],[81.4335,7.57],[81.452,7.5428],[81.4992,7.5216],[81.4943,7.5152],[81.5182,7.5087],[81.6192,7.5081],[81.6496,7.5251],[81.648,7.5025],[81.6606,7.4725],[81.6636,7.3987],[81.6703,7.4012],[81.6741,7.4139],[81.6905,7.4209],[81.725,7.4553],[81.7607,7.4598],[81.7764,7.4819],[81.7935,7.4705],[81.8144,7.4804]]]}},{"type":"Feature","properties":{"district":"Colombo","label":[80.0295,6.8381]},"geometry":{"type":"Polygon","coordinates":[[[79.8699,6.9793],[79.8681,6.9685],[79.8533,6.961],[79.857,6.9537],[79.8476,6.9377],[79.8429,6.94],[79.8463,6.9518],[79.8449,6.9558],[79.8398,6.9608],[79.8428,6.9454],[79.8406,6.9496],[79.839,6.9445],[79.8235,6.9454],[79.8233,6.9573],[79.8311,6.9659],[79.8228,6.9576],[79.8225,6.9453],[79.8404,6.9383],[79.8578,6.8716],[79.863,6.8247],[79.8996,6.7164],[79.904,6.7188],[79.9013,6.7332],[79.8866,6.7719],[79.8911,6.7769],[79.9163,6.7619],[79.9178,6.7497],[79.9443,6.7492],[79.9519,6.7615],[79.9907,6.7624],[80.0351,6.8064],[80.0548,6.7924],[80.0657,6.7937],[80.0789,6.8167],[80.0886,6.8149],[80.0981,6.8035],[80.106,6.7734],[80.1198,6.7704],[80.1256,6.7843],[80.1164,6.8052],[80.1337,6.8159],[80.1493,6.8241],[80.1642,6.8144],[80.1742,6.8199],[80.1811,6.8142],[80.2021,6.8194],[80.1942,6.8515],[80.175,6.8599],[80.1889,6.8995],[80.2117,6.9179],[80.2082,6.938],[80.2231,6.9408],[80.2171,6.9753],[80.1693,6.9794],[80.1668,6.9708],[80.1245,6.9747],[80.1217,6.9654],[80.0985,6.9515],[80.0932,6.9123],[80.0737,6.9082],[80.0642,6.9128],[80.0606,6.9071],[80.0203,6.9247],[80.0136,6.947],[79.9934,6.944],[79.9861,6.9354],[79.9548,6.9432],[79.9444,6.9383],[79.9347,6.9502],[79.9233,6.9525],[79.9162,6.9456],[79.9108,6.9504],[79.9003,6.9473],[79.8999,6.9559],[79.8792,6.9583],[79.8835,6.9794],[79.8699,6.9793]]]}},{"type":"Feature","properties":{"district":"Galle","label":[80.2277,6.2024]},"geometry":{"type":"Polygon","coordinates":[[[79.9876,6.4404],[80.0102,6.3677],[80.0284,6.331],[80.0284,6.3139],[80.0378,6.2928],[80.033,6.2694],[80.0516,6.2361],[80.063,6.1907],[80.0886,6.1661],[80.0987,6.1484],[80.1,6.131],[80.1231,6.1111],[80.1242,6.1018],[80.1914,6.0427],[80.2092,6.0359],[80.2174,6.0236],[80.2224,6.0361],[80.2313,6.0349],[80.2293,6.0304],[80.2386,6.0324],[80.2425,6.0282],[80.2348,6.0174],[80.2431,6.0053],[80.2495,6.0096],[80.2646,5.9986],[80.3149,5.9914],[80.3706,5.9672],[80.3848,5.9673],[80.3819,5.9837],[80.3912,6.0087],[80.4233,6.0187],[80.4121,6.0323],[80.3916,6.0339],[80.3893,6.0546],[80.4047,6.0529],[80.4108,6.0691],[80.4367,6.0864],[80.4389,6.0937],[80.4206,6.1106],[80.4061,6.114],[80.4004,6.1284],[80.3862,6.1379],[80.3847,6.1652],[80.3961,6.1716],[80.3879,6.1862],[80.4031,6.1904],[80.3834,6.221],[80.4267,6.2142],[80.44,6.226],[80.4355,6.2366],[80.4413,6.2405],[80.4352,6.2483],[80.4392,6.2546],[80.4219,6.2727],[80.4132,6.2929],[80.3935,6.3034],[80.3775,6.3251],[80.4046,6.3337],[80.4461,6.3013],[80.4539,6.2888],[80.4751,6.2804],[80.4857,6.2845],[80.4957,6.2996],[80.4855,6.3213],[80.4644,6.3387],[80.4605,6.3515],[80.4781,6.3652],[80.4953,6.3676],[80.4939,6.3777],[80.4721,6.3782],[80.4405,6.3947],[80.4315,6.3893],[80.4191,6.3924],[80.3813,6.4256],[80.3689,6.4268],[80.3133,6.3969],[80.2902,6.3918],[80.3009,6.3354],[80.2968,6.3249],[80.2411,6.3766],[80.2175,6.3801],[80.2067,6.372],[80.2074,6.3596],[80.1894,6.3545],[80.1546,6.3672],[80.1307,6.3657],[80.1138,6.386],[80.0875,6.4018],[80.0697,6.398],[80.0614,6.4085],[80.0302,6.4197],[80.0191,6.4341],[80.0078,6.437],[79.999,6.427],[79.9876,6.4404]]]}},{"type":"Feature","properties":{"district":"Gampaha","label":[80.0371,7.1187]},"geometry":{"type":"Polygon","coordinates":[[[80.1792,6.9777],[80.1811,6.9961],[80.1629,7.0587],[80.188,7.0899],[80.1856,7.1052],[80.1962,7.1024],[80.1992,7.1171],[80.2127,7.132],[80.1833,7.1383],[80.1627,7.1269],[80.1534,7.1832],[80.1454,7.1883],[80.1519,7.1931],[80.1595,7.1846],[80.1607,7.1932],[80.1843,7.1963],[80.1867,7.2361],[80.2003,7.2494],[80.1687,7.2854],[80.1442,7.3032],[80.1488,7.3124],[80.1394,7.3232],[80.1242,7.3305],[80.0592,7.2839],[80.0467,7.2996],[80.0308,7.3026],[80.0267,7.3179],[80.0148,7.3145],[80.0068,7.3212],[79.9881,7.3066],[79.9944,7.3032],[79.9821,7.3014],[79.9784,7.2931],[79.9518,7.2902],[79.9561,7.283],[79.9459,7.2739],[79.924,7.2845],[79.9273,7.2719],[79.9247,7.2777],[79.915,7.2769],[79.9162,7.2698],[79.9079,7.2653],[79.9075,7.2805],[79.9054,7.274],[79.8992,7.2814],[79.8979,7.2748],[79.8848,7.2739],[79.8758,7.2827],[79.8663,7.2709],[79.8534,7.2773],[79.842,7.2734],[79.839,7.2238],[79.8286,7.2078],[79.84,7.2066],[79.8365,7.195],[79.848,7.1991],[79.8526,7.195],[79.8656,7.1695],[79.8744,7.1139],[79.8653,7.1124],[79.8628,7.1261],[79.8577,7.1056],[79.8534,7.1068],[79.8562,7.1012],[79.8447,7.1115],[79.8472,7.1203],[79.8231,7.1817],[79.8303,7.202],[79.8258,7.2082],[79.8169,7.2035],[79.8699,6.9793],[79.8835,6.9794],[79.8791,6.9654],[79.8834,6.9543],[79.8999,6.9559],[79.8982,6.9479],[79.9108,6.9504],[79.9162,6.9456],[79.9233,6.9525],[79.9347,6.9502],[79.9444,6.9383],[79.9548,6.9432],[79.9861,6.9354],[79.9934,6.944],[80.0136,6.947],[80.0203,6.9247],[80.0606,6.9071],[80.0642,6.9128],[80.0737,6.9082],[80.0932,6.9123],[80.0985,6.9515],[80.1217,6.9654],[80.1245,6.9747],[80.1668,6.9708],[80.1693,6.9794],[80.1792,6.9777]]]}},{"type":"Feature","properties":{"district":"Hambantota","label":[81.1795,6.2801]},"geometry":{"type":"Polygon","coordinates":[[[80.704,6.3065],[80.6567,6.3026],[80.6636,6.2873],[80.6527,6.271],[80.6609,6.26],[80.6385,6.2526],[80.6083,6.1996],[80.6115,6.1885],[80.6288,6.1813],[80.6371,6.17],[80.6602,6.1736],[80.6623,6.1664],[80.6466,6.1408],[80.6481,6.1334],[80.6605,6.1285],[80.6638,6.1192],[80.6871,6.1238],[80.696,6.1155],[80.6802,6.1021],[80.682,6.0895],[80.6937,6.0758],[80.6921,6.0632],[80.6615,6.0524],[80.655,6.0431],[80.6638,6.0389],[80.6666,6.0253],[80.6917,6.0265],[80.6986,6.0185],[80.6869,6.0086],[80.6883,5.9907],[80.7029,5.9932],[80.7378,5.972],[80.7362,5.9817],[80.7501,5.9889],[80.7451,5.9906],[80.7486,5.9983],[80.7812,6.0062],[80.8014,6.0227],[80.799,6.0303],[80.8071,6.0372],[80.8471,6.0454],[80.8607,6.0421],[80.8713,6.0582],[80.9365,6.0749],[80.9433,6.0838],[80.977,6.0871],[81.0009,6.1012],[81.0569,6.1106],[81.0942,6.1089],[81.0967,6.1144],[81.1043,6.1129],[81.0975,6.1144],[81.1016,6.1183],[81.0972,6.1278],[81.106,6.1274],[81.1062,6.1167],[81.1276,6.1199],[81.1304,6.1321],[81.1876,6.1586],[81.2261,6.1651],[81.2358,6.1795],[81.3241,6.1988],[81.3415,6.2235],[81.4015,6.2507],[81.4383,6.2941],[81.4813,6.3107],[81.5035,6.3499],[81.5569,6.3672],[81.567,6.3732],[81.5675,6.3819],[81.5997,6.3995],[81.6191,6.4166],[81.616,6.4281],[81.6495,6.4457],[81.6614,6.4643],[81.6931,6.4865],[81.7079,6.5107],[81.6772,6.5197],[81.6623,6.5404],[81.638,6.5422],[81.6209,6.5711],[81.6083,6.58],[81.5997,6.5613],[81.5887,6.5608],[81.5811,6.5508],[81.5652,6.5545],[81.5469,6.5365],[81.5329,6.5359],[81.524,6.5197],[81.4821,6.4958],[81.4793,6.4731],[81.4862,6.4643],[81.4762,6.4488],[81.4798,6.4193],[81.4721,6.4081],[81.4397,6.4199],[81.4008,6.4064],[81.3933,6.4147],[81.384,6.3985],[81.3733,6.3981],[81.3673,6.3906],[81.2784,6.3691],[81.2735,6.3551],[81.2535,6.3408],[81.2256,6.3447],[81.2211,6.3495],[81.2244,6.3578],[81.211,6.3672],[81.1843,6.4055],[81.1569,6.3926],[81.1506,6.3997],[81.1446,6.3975],[81.1369,6.4211],[81.1012,6.4183],[81.0709,6.4238],[81.0616,6.4113],[81.0491,6.4218],[81.0494,6.4068],[81.037,6.3913],[81.0132,6.396],[81.0083,6.3878],[81.0075,6.3692],[81.0225,6.3589],[81.0182,6.3447],[80.968,6.3254],[80.9214,6.2965],[80.9311,6.2883],[80.9341,6.2729],[80.9413,6.2706],[80.9531,6.2388],[80.9397,6.2279],[80.9311,6.2401],[80.9104,6.2381],[80.8926,6.2491],[80.882,6.2463],[80.8692,6.2667],[80.8579,6.272],[80.798,6.2671],[80.704,6.3065]]]}},{"type":"Feature","properties":{"district":"Jaffna","label":[80.2308,9.6476]},"geometry":{"type":"MultiPolygon","coordinates":[[[[79.7254,9.5239],[79.6922,9.5314],[79.6705,9.554],[79.6596,9.5561],[79.651,9.5473],[79.655,9.5051],[79.7046,9.4758],[79.7201,9.4744],[79.7316,9.4922],[79.7254,9.5239]]],[[[79.7827,9.6873],[79.7641,9.6605],[79.7698,9.6511],[79.787,9.6658],[79.7827,9.6873]]],[[[79.8119,9.6854],[79.8118,9.7025],[79.814,9.7159],[79.8073,9.6951],[79.8119,9.6854]]],[[[79.8553,9.7457],[79.8613,9.7266],[79.8502,9.7131],[79.8803,9.7037],[79.8927,9.7137],[79.8883,9.7276],[79.8973,9.7539],[79.8919,9.7637],[79.9019,9.7668],[79.8632,9.762],[79.8553,9.7457]]],[[[80.6216,9.4595],[80.3614,9.6646],[80.3223,9.7109],[80.2468,9.8286],[80.2121,9.8358],[80.1691,9.8249],[80.1397,9.8253],[80.1011,9.8089],[80.0444,9.8162],[80.0303,9.8234],[80.0267,9.823],[80.0364,9.8178],[79.9706,9.8054],[79.9481,9.7949],[79.9356,9.7809],[79.9071,9.7694],[79.9081,9.754],[79.9256,9.7386],[79.9304,9.7139],[79.9456,9.6895],[79.9546,9.6885],[79.9638,9.7014],[79.9673,9.7164],[79.973,9.7208],[79.9717,9.7292],[79.9734,9.7324],[79.9742,9.7207],[79.9675,9.7133],[79.9668,9.6982],[79.9804,9.6848],[79.9888,9.6919],[79.9979,9.6881],[79.9976,9.672],[80.0131,9.654],[80.0398,9.6458],[80.0468,9.6498],[80.0961,9.6189],[80.1342,9.6083],[80.0825,9.6405],[80.0775,9.6596],[80.1372,9.6264],[80.1998,9.5808],[80.2084,9.5862],[80.1843,9.5955],[80.1727,9.6362],[80.1625,9.6361],[80.1566,9.6454],[80.1615,9.6525],[80.1741,9.6552],[80.255,9.6146],[80.2955,9.6913],[80.3321,9.6495],[80.4006,9.611],[80.447,9.5748],[80.4558,9.5553],[80.4548,9.5399],[80.4725,9.5212],[80.6011,9.4592],[80.6216,9.4595]]],[[[79.8393,9.6116],[79.8542,9.6041],[79.8419,9.6056],[79.8501,9.5958],[79.8368,9.5989],[79.8347,9.5916],[79.8201,9.6016],[79.8204,9.6259],[79.8182,9.6207],[79.8104,9.6249],[79.8051,9.6014],[79.8106,9.5987],[79.8088,9.5896],[79.8031,9.59],[79.8032,9.5775],[79.843,9.5675],[79.8614,9.5711],[79.8624,9.6069],[79.8436,9.6194],[79.8393,9.6116]]],[[[79.7739,9.5846],[79.7754,9.6195],[79.7706,9.622],[79.7628,9.6134],[79.7635,9.5897],[79.7739,9.5846]]],[[[79.8611,9.6168],[79.8521,9.6338],[79.8541,9.6234],[79.8596,9.6174],[79.8611,9.6168]]],[[[79.9824,9.6222],[79.9837,9.6358],[79.9632,9.6343],[79.9232,9.6611],[79.932,9.6655],[79.9279,9.669],[79.935,9.6767],[79.9188,9.6802],[79.9231,9.6767],[79.9064,9.6718],[79.9145,9.6516],[79.8964,9.6741],[79.8994,9.684],[79.8866,9.6991],[79.8725,9.6931],[79.8624,9.7035],[79.8413,9.7034],[79.8495,9.6911],[79.8439,9.6854],[79.8468,9.6762],[79.8571,9.6613],[79.8682,9.6586],[79.8728,9.6697],[79.878,9.6664],[79.8645,9.6537],[79.8688,9.6391],[79.9003,9.6163],[79.9081,9.6175],[79.918,9.6329],[79.9354,9.6307],[79.9706,9.6125],[79.9813,9.6218],[79.9854,9.6129],[79.978,9.6054],[79.965,9.6079],[79.9878,9.5971],[80.0007,9.6036],[80.0084,9.6287],[79.9947,9.6508],[79.9912,9.641],[79.9855,9.6429],[79.99,9.6297],[79.9824,9.6222]]]]}},{"type":"Feature","properties":{"district":"Kalutara","label":[80.1324,6.5836]},"geometry":{"type":"Polygon","coordinates":[[[80.3813,6.4256],[80.313,6.5342],[80.3045,6.5392],[80.2953,6.5641],[80.3146,6.5712],[80.3032,6.5959],[80.2825,6.6179],[80.255,6.627],[80.2494,6.6586],[80.2158,6.6919],[80.1987,6.7273],[80.2054,6.7305],[80.1925,6.761],[80.1921,6.7818],[80.1742,6.8199],[80.1642,6.8144],[80.1493,6.8241],[80.1164,6.8052],[80.1256,6.7843],[80.1198,6.7704],[80.106,6.7734],[80.0981,6.8035],[80.0886,6.8149],[80.0789,6.8167],[80.0657,6.7937],[80.0548,6.7924],[80.0351,6.8064],[79.9907,6.7624],[79.9519,6.7615],[79.9443,6.7492],[79.9178,6.7497],[79.9163,6.7619],[79.8978,6.7761],[79.8879,6.7752],[79.9013,6.7332],[79.904,6.7188],[79.8996,6.7164],[79.9353,6.6414],[79.9815,6.5116],[79.976,6.5055],[79.9827,6.4775],[79.9734,6.4703],[79.9745,6.4597],[79.999,6.427],[80.0078,6.437],[80.0191,6.4341],[80.0302,6.4197],[80.0614,6.4085],[80.0697,6.398],[80.0875,6.4018],[80.1138,6.386],[80.1307,6.3657],[80.1546,6.3672],[80.1894,6.3545],[80.2074,6.3596],[80.2067,6.372],[80.2175,6.3801],[80.2411,6.3766],[80.2968,6.3249],[80.3009,6.3354],[80.2902,6.3918],[80.3133,6.3969],[80.3689,6.4268],[80.3813,6.4256]]]}},{"type":"Feature","properties":{"district":"Kandy","label":[80.6436,7.2145]},"geometry":{"type":"Polygon","coordinates":[[[80.9742,7.4884],[80.9324,7.4896],[80.9182,7.4614],[80.9095,7.4649],[80.9065,7.4586],[80.8991,7.4747],[80.8866,7.4732],[80.8793,7.464],[80.8627,7.4748],[80.8501,7.4725],[80.8397,7.4631],[80.8204,7.4599],[80.8069,7.4476],[80.8084,7.4401],[80.7903,7.4278],[80.7533,7.4486],[80.7278,7.4746],[80.7012,7.4573],[80.7121,7.4261],[80.706,7.3952],[80.6984,7.387],[80.654,7.3846],[80.5731,7.4405],[80.5663,7.4575],[80.5552,7.4496],[80.5403,7.4497],[80.5565,7.4195],[80.549,7.4149],[80.5385,7.4218],[80.538,7.4156],[80.5291,7.4183],[80.5294,7.4122],[80.5168,7.4137],[80.518,7.3893],[80.5114,7.386],[80.4703,7.4128],[80.4616,7.411],[80.4722,7.3937],[80.4514,7.3617],[80.4598,7.3526],[80.4262,7.3596],[80.4221,7.3552],[80.4265,7.3323],[80.455,7.313],[80.4814,7.2848],[80.476,7.2697],[80.4795,7.2636],[80.504,7.258],[80.5188,7.2409],[80.5224,7.2203],[80.5133,7.2081],[80.5481,7.1694],[80.5293,7.1617],[80.5346,7.1504],[80.5103,7.149],[80.5005,7.128],[80.4558,7.1221],[80.4453,7.1113],[80.4542,7.1013],[80.4647,7.0654],[80.4711,7.0652],[80.4638,7.0575],[80.4609,7.0313],[80.4734,7.0373],[80.4975,7.0261],[80.5159,6.9822],[80.5401,6.962],[80.5531,6.9405],[80.578,6.9444],[80.5777,6.9594],[80.5895,6.9649],[80.5941,6.9858],[80.6028,6.9945],[80.5618,7.0403],[80.5521,7.065],[80.5397,7.0589],[80.5412,7.0734],[80.5543,7.0816],[80.5611,7.0768],[80.5716,7.082],[80.5779,7.0744],[80.6271,7.0793],[80.6378,7.0993],[80.6486,7.1029],[80.6889,7.0927],[80.7299,7.1587],[80.7391,7.1618],[80.7709,7.1983],[80.7667,7.2368],[80.753,7.2512],[80.7522,7.2736],[80.8017,7.2264],[80.8023,7.2051],[80.8231,7.1944],[80.8504,7.1903],[80.8804,7.1945],[80.8849,7.1808],[80.8985,7.1989],[80.9417,7.202],[80.9729,7.1963],[80.9833,7.2126],[81.0082,7.2165],[81.0165,7.2334],[80.9763,7.3629],[80.9827,7.3937],[80.9695,7.4133],[80.9752,7.427],[80.9742,7.4884]]]}},{"type":"Feature","properties":{"district":"Kegalle","label":[80.3233,7.1142]},"geometry":{"type":"Polygon","coordinates":[[[80.2117,6.9179],[80.224,6.9311],[80.2306,6.9242],[80.2332,6.9031],[80.241,6.9075],[80.2508,6.9015],[80.2688,6.8743],[80.2822,6.8701],[80.2849,6.8555],[80.3108,6.8623],[80.3287,6.8363],[80.3405,6.8301],[80.3574,6.8497],[80.3796,6.8544],[80.3889,6.85],[80.4,6.8597],[80.424,6.8398],[80.432,6.8481],[80.4516,6.8331],[80.496,6.8317],[80.5114,6.8475],[80.5004,6.8573],[80.4949,6.8717],[80.498,6.887],[80.4913,6.8932],[80.433,6.9136],[80.4376,6.9558],[80.4456,6.9654],[80.4331,6.9926],[80.4502,6.9993],[80.4674,7.0171],[80.4609,7.0473],[80.4711,7.0652],[80.4647,7.0654],[80.4542,7.1013],[80.4453,7.1113],[80.4558,7.1221],[80.5005,7.128],[80.5103,7.149],[80.5346,7.1504],[80.5293,7.1617],[80.5481,7.1694],[80.5133,7.2081],[80.5224,7.2203],[80.5188,7.2409],[80.504,7.258],[80.4795,7.2636],[80.476,7.2697],[80.4814,7.2848],[80.455,7.313],[80.4265,7.3323],[80.4221,7.3552],[80.4144,7.3567],[80.4116,7.383],[80.3923,7.3965],[80.347,7.3877],[80.3559,7.3611],[80.3424,7.3511],[80.35,7.3392],[80.3382,7.3212],[80.3215,7.3288],[80.3167,7.3212],[80.2885,7.315],[80.2793,7.3184],[80.2548,7.3045],[80.2138,7.2747],[80.2039,7.2591],[80.1956,7.2582],[80.2002,7.2449],[80.1867,7.2361],[80.1843,7.1963],[80.1607,7.1932],[80.1595,7.1846],[80.1519,7.1931],[80.1454,7.1883],[80.1534,7.1832],[80.1627,7.1269],[80.1833,7.1383],[80.2127,7.132],[80.1992,7.1171],[80.1962,7.1024],[80.1856,7.1052],[80.188,7.0899],[80.1629,7.0587],[80.1811,6.9961],[80.1792,6.9777],[80.2072,6.9787],[80.2182,6.9726],[80.2231,6.9408],[80.2082,6.938],[80.2117,6.9179]]]}},{"type":"Feature","properties":{"district":"Kilinochchi","label":[80.4633,9.4502]},"geometry":{"type":"MultiPolygon","coordinates":[[[[80.0054,9.4847],[80.0149,9.467],[80.0178,9.4812],[80.0054,9.4847]]],[[[79.984,9.3067],[79.9717,9.2957],[79.9718,9.2859],[79.9776,9.2801],[79.9912,9.2841],[80.0021,9.2714],[80.0053,9.2868],[79.9919,9.2883],[79.9949,9.2928],[79.984,9.3067]]],[[[80.0519,9.3382],[80.0607,9.3314],[80.0566,9.3482],[80.0519,9.3382]]],[[[80.255,9.6146],[80.3421,9.561],[80.3847,9.5132],[80.3902,9.5195],[80.405,9.5196],[80.4027,9.5129],[80.3907,9.5153],[80.397,9.5039],[80.3895,9.484],[80.3521,9.4672],[80.34,9.4734],[80.3325,9.4553],[80.3119,9.4618],[80.3059,9.4579],[80.3134,9.4478],[80.3059,9.45],[80.3088,9.4478],[80.3071,9.442],[80.3021,9.4555],[80.2922,9.4587],[80.2925,9.4516],[80.2863,9.4505],[80.2882,9.4561],[80.2358,9.4743],[80.2777,9.475],[80.2553,9.4884],[80.2485,9.5061],[80.2608,9.4972],[80.2818,9.4951],[80.2238,9.5346],[80.2206,9.5275],[80.1975,9.5383],[80.196,9.5454],[80.1706,9.5437],[80.143,9.5592],[80.1262,9.5778],[80.1134,9.5751],[80.103,9.5882],[80.0656,9.5999],[80.0616,9.6115],[80.052,9.5992],[80.0899,9.5789],[80.147,9.5353],[80.186,9.4856],[80.1805,9.4714],[80.17,9.4668],[80.1451,9.4364],[80.0536,9.3896],[80.0634,9.3309],[80.0892,9.3256],[80.1228,9.2974],[80.11,9.2757],[80.1208,9.2538],[80.1163,9.2429],[80.12,9.2124],[80.1154,9.2091],[80.149,9.2111],[80.1918,9.2373],[80.2181,9.2341],[80.2136,9.2767],[80.2407,9.2974],[80.2642,9.3029],[80.2794,9.2978],[80.3213,9.3085],[80.395,9.301],[80.4065,9.308],[80.4078,9.3395],[80.5187,9.3451],[80.532,9.4052],[80.5586,9.3765],[80.5854,9.3627],[80.5864,9.4083],[80.6095,9.4257],[80.6142,9.4434],[80.6074,9.4488],[80.6155,9.4478],[80.6135,9.4566],[80.4725,9.5212],[80.4548,9.5399],[80.4558,9.5553],[80.447,9.5748],[80.4006,9.611],[80.3321,9.6495],[80.2955,9.6913],[80.255,9.6146]]]]}},{"type":"Feature","properties":{"district":"Kurunegala","label":[80.2568,7.728]},"geometry":{"type":"Polygon","coordinates":[[[80.1019,8.1973],[80.1058,8.1893],[80.1002,8.1671],[80.1098,8.1418],[80.1153,8.096],[80.1285,8.0789],[80.1533,8.0662],[80.1437,8.0063],[80.1495,7.9974],[80.1332,7.965],[80.1484,7.9417],[80.1326,7.9348],[80.1222,7.9471],[80.1109,7.9501],[80.1087,7.9293],[80.0989,7.9143],[80.0928,7.9158],[80.0937,7.9214],[80.0723,7.9136],[80.0742,7.8926],[80.0669,7.889],[80.0663,7.8731],[80.053,7.8733],[80.0382,7.8605],[80.0374,7.8444],[80.0062,7.8313],[80.0114,7.816],[79.999,7.8126],[79.9944,7.7929],[80.0023,7.7786],[79.9936,7.7631],[79.9987,7.7431],[79.9776,7.732],[79.9757,7.7239],[79.9553,7.72],[79.954,7.702],[79.9409,7.6965],[79.9633,7.6868],[79.9594,7.6751],[79.9482,7.676],[79.9459,7.682],[79.9287,7.6746],[79.9306,7.6655],[79.9239,7.6556],[79.9338,7.6507],[79.9229,7.6453],[79.9214,7.6337],[79.9057,7.6166],[79.909,7.5978],[79.9005,7.5597],[79.9053,7.5058],[79.9375,7.3493],[79.9416,7.2765],[79.9547,7.2805],[79.9506,7.2889],[79.9572,7.2942],[79.9685,7.2892],[79.9821,7.3014],[79.9944,7.3032],[79.9881,7.3066],[80.0068,7.3212],[80.0148,7.3145],[80.0267,7.3179],[80.0308,7.3026],[80.0467,7.2996],[80.0592,7.2839],[80.1242,7.3305],[80.1394,7.3232],[80.1488,7.3124],[80.1442,7.3032],[80.1687,7.2854],[80.1851,7.2612],[80.1956,7.2582],[80.2039,7.2591],[80.2138,7.2747],[80.2793,7.3184],[80.2885,7.315],[80.3167,7.3212],[80.3215,7.3288],[80.3382,7.3212],[80.35,7.3392],[80.3424,7.3511],[80.3559,7.3611],[80.347,7.3877],[80.3923,7.3965],[80.4116,7.383],[80.4144,7.3567],[80.4452,7.3574],[80.457,7.35],[80.4514,7.3617],[80.4722,7.3937],[80.4616,7.411],[80.4703,7.4128],[80.5114,7.386],[80.518,7.3893],[80.5168,7.4137],[80.5294,7.4122],[80.5291,7.4183],[80.538,7.4156],[80.5385,7.4218],[80.549,7.4149],[80.5565,7.4195],[80.5403,7.4497],[80.5552,7.4496],[80.5663,7.4575],[80.5648,7.4694],[80.5764,7.4787],[80.571,7.4871],[80.5738,7.5087],[80.5689,7.5167],[80.5631,7.5139],[80.5657,7.5242],[80.5528,7.5386],[80.5527,7.5511],[80.5626,7.5728],[80.5751,7.5749],[80.569,7.594],[80.5779,7.605],[80.5658,7.6311],[80.5491,7.6422],[80.5453,7.6612],[80.5519,7.662],[80.5535,7.6737],[80.5495,7.7053],[80.5366,7.7089],[80.5373,7.7389],[80.5295,7.7444],[80.5197,7.7724],[80.5036,7.7744],[80.4998,7.8164],[80.4839,7.8231],[80.479,7.841],[80.4691,7.85],[80.4798,7.8773],[80.4659,7.9047],[80.4611,7.9453],[80.4475,7.9551],[80.4336,7.9479],[80.4187,7.9533],[80.426,7.9629],[80.4154,8.0072],[80.4194,8.0436],[80.4047,8.0549],[80.3924,8.048],[80.37,8.0578],[80.3081,8.1171],[80.2664,8.1154],[80.2512,8.1332],[80.2151,8.1436],[80.2071,8.1535],[80.1882,8.1515],[80.1839,8.1621],[80.123,8.1813],[80.1019,8.1973]]]}},{"type":"Feature","properties":{"district":"Mannar","label":[80.1613,8.8873]},"geometry":{"type":"MultiPolygon","coordinates":[[[[80.1154,9.2091],[80.1046,9.1936],[80.1,9.1598],[80.0763,9.127],[80.072,9.0783],[80.0415,9.0163],[80.0158,9.0126],[79.9906,8.9957],[79.9871,8.9763],[79.968,8.9694],[79.9475,8.9473],[79.9206,8.9456],[79.9112,8.9388],[79.9321,8.9164],[79.9272,8.9115],[79.9356,8.9012],[79.9278,8.9023],[79.9294,8.8735],[79.915,8.8126],[79.9598,8.7241],[79.9503,8.7117],[79.9523,8.6798],[79.9425,8.6514],[79.9476,8.6322],[79.9204,8.5939],[79.9198,8.5673],[79.9376,8.556],[79.949,8.5593],[79.9651,8.5501],[79.9776,8.5529],[79.9919,8.5419],[80.0009,8.5445],[80.008,8.5357],[80.0433,8.5222],[80.0504,8.5219],[80.0553,8.637],[80.0444,8.6732],[80.0801,8.6536],[80.1138,8.6494],[80.2354,8.6804],[80.1942,8.7335],[80.1709,8.7488],[80.1778,8.7746],[80.198,8.7647],[80.2297,8.8279],[80.2974,8.8203],[80.3175,8.8306],[80.3713,8.84],[80.4025,8.8569],[80.3802,8.9364],[80.3497,8.9567],[80.175,8.9503],[80.1771,8.9713],[80.1901,8.9794],[80.1762,8.9966],[80.1949,9.0459],[80.22,9.0548],[80.2161,9.0973],[80.2257,9.1132],[80.2171,9.1432],[80.1955,9.176],[80.1918,9.2373],[80.149,9.2111],[80.1154,9.2091]]],[[[79.9138,8.9418],[79.9183,8.9548],[79.9131,8.9569],[79.9029,8.9424],[79.9138,8.9418]]],[[[79.9023,8.9468],[79.9092,8.9556],[79.9027,8.9617],[79.8913,8.9557],[79.9023,8.9468]]],[[[79.8907,8.9556],[79.8864,8.965],[79.8945,8.9622],[79.9126,8.9755],[79.9265,8.9755],[79.9265,8.9825],[79.8827,9.0131],[79.8531,9.0611],[79.8705,9.0374],[79.9275,9.0097],[79.8621,9.0726],[79.7981,9.0963],[79.7499,9.1064],[79.7099,9.1048],[79.6898,9.0915],[79.6981,9.0829],[79.6862,9.076],[79.7135,9.0769],[79.7468,9.0682],[79.8117,9.0351],[79.8612,8.9945],[79.8907,8.9556]]]]}},{"type":"Feature","properties":{"district":"Matale","label":[80.6615,7.6972]},"geometry":{"type":"Polygon","coordinates":[[[80.9891,7.7217],[80.9279,7.7083],[80.9065,7.7159],[80.8836,7.7151],[80.8769,7.6797],[80.8703,7.6895],[80.8555,7.6909],[80.8531,7.7011],[80.8369,7.6813],[80.8093,7.6717],[80.8048,7.6796],[80.7788,7.6779],[80.761,7.6956],[80.7698,7.6905],[80.7745,7.7019],[80.7638,7.734],[80.7659,7.7868],[80.7612,7.7922],[80.7688,7.8023],[80.7956,7.8049],[80.7935,7.8173],[80.8024,7.822],[80.811,7.852],[80.8196,7.9245],[80.834,7.9542],[80.8533,7.9627],[80.84,7.9722],[80.8256,7.9713],[80.8148,7.9835],[80.7991,7.9766],[80.7985,7.9606],[80.7879,7.9625],[80.7784,7.9682],[80.7795,7.9948],[80.7561,8.0123],[80.7059,7.9918],[80.6823,7.9567],[80.6685,7.9634],[80.6587,7.9601],[80.6529,7.9466],[80.6541,7.9152],[80.6324,7.9002],[80.639,7.8885],[80.6229,7.8826],[80.6228,7.8686],[80.5998,7.8558],[80.5902,7.8672],[80.576,7.8684],[80.5652,7.8489],[80.5244,7.8273],[80.4999,7.8261],[80.4965,7.8093],[80.5036,7.7744],[80.5197,7.7724],[80.5295,7.7444],[80.5373,7.7389],[80.5366,7.7089],[80.5495,7.7053],[80.5538,7.6663],[80.5453,7.6612],[80.5491,7.6422],[80.5658,7.6311],[80.5779,7.605],[80.569,7.594],[80.5751,7.5749],[80.5626,7.5728],[80.5527,7.5511],[80.5528,7.5386],[80.5657,7.5242],[80.5631,7.5139],[80.5689,7.5167],[80.5738,7.5087],[80.571,7.4871],[80.5764,7.4787],[80.5648,7.4694],[80.5731,7.4405],[80.654,7.3846],[80.6984,7.387],[80.706,7.3952],[80.7121,7.4261],[80.7012,7.4573],[80.7278,7.4746],[80.7533,7.4486],[80.7903,7.4278],[80.8084,7.4401],[80.8069,7.4476],[80.8204,7.4599],[80.8397,7.4631],[80.8501,7.4725],[80.8627,7.4748],[80.8793,7.464],[80.8866,7.4732],[80.8991,7.4747],[80.9065,7.4586],[80.9095,7.4649],[80.9182,7.4614],[80.9324,7.4896],[80.9742,7.4884],[80.9717,7.5666],[80.9779,7.625],[80.9817,7.6432],[80.9947,7.6615],[80.9875,7.6888],[80.9926,7.6987],[80.9891,7.7217]]]}},{"type":"Feature","properties":{"district":"Matara","label":[80.5197,6.153]},"geometry":{"type":"Polygon","coordinates":[[[80.3818,5.9653],[80.4186,5.9547],[80.4262,5.9703],[80.438,5.9725],[80.4539,5.9633],[80.4518,5.9479],[80.4437,5.9465],[80.4538,5.9412],[80.5197,5.9354],[80.5573,5.9415],[80.5777,5.9346],[80.584,5.9198],[80.5915,5.919],[80.595,5.9261],[80.62,5.9325],[80.6226,5.9453],[80.6402,5.9442],[80.6495,5.9548],[80.6974,5.9634],[80.722,5.9598],[80.7173,5.9645],[80.722,5.9816],[80.7029,5.9932],[80.6883,5.9907],[80.6869,6.0086],[80.6986,6.0185],[80.6936,6.0252],[80.6666,6.0253],[80.6638,6.0389],[80.655,6.0431],[80.6615,6.0524],[80.6921,6.0632],[80.6937,6.0758],[80.682,6.0895],[80.6802,6.1021],[80.696,6.1155],[80.6941,6.1207],[80.6638,6.1192],[80.6605,6.1285],[80.6481,6.1334],[80.6466,6.1408],[80.6623,6.1664],[80.6602,6.1736],[80.6371,6.17],[80.6288,6.1813],[80.6115,6.1885],[80.6083,6.1996],[80.6385,6.2526],[80.6609,6.26],[80.6527,6.271],[80.6636,6.2873],[80.6567,6.3026],[80.6701,6.306],[80.6697,6.3187],[80.6752,6.3218],[80.6572,6.3372],[80.6634,6.3398],[80.6613,6.3538],[80.6112,6.3459],[80.6065,6.3597],[80.6175,6.3711],[80.6188,6.3963],[80.5549,6.3895],[80.5496,6.3961],[80.5447,6.3891],[80.5338,6.3882],[80.5337,6.3743],[80.4824,6.3667],[80.4605,6.3515],[80.4644,6.3387],[80.4855,6.3213],[80.4957,6.2996],[80.4857,6.2845],[80.4751,6.2804],[80.4539,6.2888],[80.4461,6.3013],[80.4046,6.3337],[80.3789,6.3276],[80.3864,6.3101],[80.4132,6.2929],[80.4219,6.2727],[80.4392,6.2546],[80.4352,6.2483],[80.4413,6.2405],[80.4355,6.2366],[80.44,6.226],[80.4267,6.2142],[80.3834,6.221],[80.4031,6.1904],[80.3879,6.1862],[80.3961,6.1716],[80.3847,6.1652],[80.3862,6.1379],[80.4004,6.1284],[80.4061,6.114],[80.4206,6.1106],[80.4389,6.0937],[80.4367,6.0864],[80.4108,6.0691],[80.4047,6.0529],[80.3893,6.0546],[80.3916,6.0339],[80.4121,6.0323],[80.4233,6.0187],[80.3912,6.0087],[80.3818,5.9653]]]}},{"type":"Feature","properties":{"district":"Monaragala","label":[81.3849,6.8869]},"geometry":{"type":"Polygon","coordinates":[[[81.6083,6.58],[81.6287,6.913],[81.6372,6.96],[81.6178,6.9791],[81.6209,6.9984],[81.6072,7.0259],[81.6192,7.0492],[81.6142,7.0685],[81.5961,7.0696],[81.5365,7.0948],[81.5332,7.0904],[81.5154,7.103],[81.5134,7.1363],[81.5001,7.1548],[81.5224,7.1976],[81.5531,7.2176],[81.534,7.24],[81.5231,7.2429],[81.5276,7.2536],[81.5188,7.2903],[81.479,7.3247],[81.4908,7.3378],[81.4724,7.393],[81.4771,7.4217],[81.462,7.4304],[81.4788,7.4547],[81.4564,7.4584],[81.4219,7.4358],[81.4075,7.4331],[81.4057,7.4167],[81.3888,7.4079],[81.375,7.4104],[81.3737,7.3976],[81.3864,7.3709],[81.3745,7.3585],[81.3651,7.3575],[81.367,7.3435],[81.3445,7.3356],[81.3207,7.3375],[81.323,7.2631],[81.3051,7.2574],[81.2855,7.2406],[81.2866,7.2486],[81.2774,7.2554],[81.2705,7.2769],[81.2315,7.2676],[81.2359,7.2395],[81.2069,7.2015],[81.1887,7.1911],[81.1853,7.1725],[81.1644,7.1735],[81.1521,7.1948],[81.1404,7.1883],[81.1239,7.1645],[81.1271,7.1452],[81.1416,7.137],[81.159,7.1142],[81.1687,7.0841],[81.2128,7.0967],[81.2191,7.0806],[81.2293,7.0844],[81.2462,7.0223],[81.2318,6.9886],[81.2343,6.9657],[81.2203,6.9602],[81.2264,6.9457],[81.2067,6.9398],[81.2038,6.9214],[81.187,6.9213],[81.1828,6.9288],[81.1728,6.9011],[81.1126,6.8726],[81.11,6.8632],[81.118,6.862],[81.1382,6.8405],[81.1316,6.8333],[81.0966,6.8279],[81.0989,6.8125],[81.0936,6.8091],[81.0658,6.8137],[81.0611,6.7828],[81.0648,6.7618],[81.0515,6.739],[81.056,6.7345],[81.0711,6.7375],[81.085,6.728],[81.078,6.7073],[81.0647,6.6998],[81.061,6.6515],[81.0648,6.6332],[81.0862,6.6096],[81.0764,6.6112],[81.0622,6.5992],[81.0624,6.5785],[81.0408,6.5906],[81.0338,6.5835],[81.0251,6.5732],[81.0227,6.5422],[80.9956,6.5751],[80.9993,6.615],[80.9909,6.6206],[80.979,6.6171],[80.9764,6.645],[80.9689,6.6545],[80.9534,6.6552],[80.9519,6.6719],[80.9396,6.6787],[80.9401,6.6904],[80.9301,6.6913],[80.9127,6.6718],[80.9036,6.639],[80.8756,6.6106],[80.8766,6.5939],[80.8696,6.5928],[80.8725,6.5819],[80.8661,6.5794],[80.8608,6.5604],[80.8636,6.5497],[80.8278,6.4901],[80.8431,6.4561],[80.8362,6.4405],[80.8428,6.4339],[80.8379,6.427],[80.8444,6.407],[80.8388,6.4017],[80.8625,6.3697],[80.8654,6.357],[80.903,6.3439],[80.9093,6.3326],[80.9066,6.322],[80.9214,6.2965],[80.968,6.3254],[81.0182,6.3447],[81.0225,6.3589],[81.0075,6.3692],[81.0083,6.3878],[81.0132,6.396],[81.037,6.3913],[81.0494,6.4068],[81.0506,6.4221],[81.0616,6.4113],[81.0709,6.4238],[81.1012,6.4183],[81.1369,6.4211],[81.1446,6.3975],[81.1506,6.3997],[81.1569,6.3926],[81.1843,6.4055],[81.211,6.3672],[81.2244,6.3578],[81.2211,6.3495],[81.2256,6.3447],[81.2535,6.3408],[81.2735,6.3551],[81.2784,6.3691],[81.3673,6.3906],[81.3733,6.3981],[81.384,6.3985],[81.3933,6.4147],[81.4008,6.4064],[81.4397,6.4199],[81.4721,6.4081],[81.4798,6.4193],[81.4762,6.4488],[81.4862,6.4643],[81.4793,6.4731],[81.4821,6.4958],[81.524,6.5197],[81.5329,6.5359],[81.5469,6.5365],[81.5652,6.5545],[81.5811,6.5508],[81.5887,6.5608],[81.5997,6.5613],[81.6083,6.58]]]}},{"type":"Feature","properties":{"district":"Mullaitivu","label":[80.524,9.2035]},"geometry":{"type":"Polygon","coordinates":[[[80.6135,9.4566],[80.6155,9.4478],[80.6074,9.4488],[80.6142,9.4434],[80.6095,9.4257],[80.5864,9.4083],[80.5854,9.3627],[80.5586,9.3765],[80.532,9.4052],[80.5187,9.3451],[80.4078,9.3395],[80.4065,9.308],[80.395,9.301],[80.3213,9.3085],[80.2794,9.2978],[80.2642,9.3029],[80.2337,9.2951],[80.2136,9.2767],[80.2181,9.2341],[80.1918,9.2373],[80.1955,9.176],[80.2171,9.1432],[80.2257,9.1132],[80.2161,9.0973],[80.22,9.0548],[80.1949,9.0459],[80.1762,8.9966],[80.1901,8.9794],[80.1771,8.9713],[80.175,8.9503],[80.3401,8.959],[80.3909,8.9911],[80.4338,9.03],[80.4262,9.0909],[80.4043,9.0908],[80.404,9.1152],[80.4912,9.1176],[80.5102,9.0936],[80.5129,9.0766],[80.53,9.0761],[80.5599,9.1074],[80.5849,9.1108],[80.5817,9.126],[80.6465,9.117],[80.6521,9.0782],[80.6681,9.0747],[80.6823,9.0831],[80.6916,9.0745],[80.6772,9.0317],[80.6852,9.0308],[80.7176,9.0515],[80.787,9.0102],[80.7658,8.937],[80.7755,8.9467],[80.8334,8.9605],[80.8697,8.9595],[80.8896,8.9812],[80.9001,8.9787],[80.9018,8.9849],[80.9203,8.9863],[80.9269,8.9921],[80.9188,8.9921],[80.9213,9.0103],[80.9173,9.0121],[80.908,8.9984],[80.8766,9.0254],[80.8966,9.0498],[80.9508,8.9889],[80.9643,8.9894],[80.8788,9.1338],[80.8446,9.231],[80.8108,9.293],[80.6709,9.4199],[80.6713,9.4112],[80.7232,9.3556],[80.7217,9.3502],[80.7158,9.3542],[80.7095,9.3695],[80.6651,9.4045],[80.67,9.4207],[80.6216,9.4595],[80.6135,9.4566]]]}},{"type":"Feature","properties":{"district":"Nuwara Eliya","label":[80.7568,7.0082]},"geometry":{"type":"Polygon","coordinates":[[[80.9458,7.2004],[80.8985,7.1989],[80.8849,7.1808],[80.8804,7.1945],[80.8504,7.1903],[80.8108,7.1987],[80.8023,7.2051],[80.8017,7.2264],[80.7522,7.2736],[80.753,7.2512],[80.7667,7.2368],[80.7709,7.1983],[80.7391,7.1618],[80.7299,7.1587],[80.6889,7.0927],[80.6486,7.1029],[80.6378,7.0993],[80.6271,7.0793],[80.5779,7.0744],[80.5716,7.082],[80.5611,7.0768],[80.5543,7.0816],[80.5412,7.0734],[80.5397,7.0589],[80.5521,7.065],[80.5618,7.0403],[80.6028,6.9945],[80.5941,6.9858],[80.5895,6.9649],[80.5777,6.9594],[80.578,6.9444],[80.5531,6.9405],[80.5401,6.962],[80.5159,6.9822],[80.4975,7.0261],[80.4734,7.0373],[80.4634,7.0284],[80.4674,7.0171],[80.4502,6.9993],[80.4331,6.9926],[80.4456,6.9654],[80.4376,6.9558],[80.433,6.9136],[80.498,6.887],[80.4949,6.8717],[80.5114,6.8475],[80.4917,6.8199],[80.5023,6.8085],[80.4886,6.7966],[80.4942,6.7849],[80.5274,6.768],[80.5444,6.7756],[80.5727,6.7639],[80.6538,6.7512],[80.6611,6.762],[80.7063,6.755],[80.7315,6.7634],[80.7448,6.7583],[80.7745,6.7784],[80.7893,6.774],[80.8145,6.7957],[80.8252,6.7931],[80.8372,6.8119],[80.8175,6.8193],[80.8139,6.8285],[80.8316,6.8337],[80.8375,6.8451],[80.8205,6.8621],[80.824,6.8765],[80.8118,6.8798],[80.81,6.9017],[80.7779,6.9104],[80.7767,6.9163],[80.7818,6.9216],[80.8162,6.9192],[80.8304,6.9299],[80.8354,6.9558],[80.8622,6.9782],[80.8749,6.9737],[80.8985,6.9773],[80.9195,6.9909],[80.9292,7.0382],[80.9651,7.0777],[80.9532,7.0902],[80.9513,7.1014],[80.9647,7.1209],[80.9499,7.1298],[80.9519,7.1451],[80.9607,7.1421],[80.9613,7.1571],[80.9425,7.1935],[80.9458,7.2004]]]}},{"type":"Feature","properties":{"district":"Polonnaruwa","label":[81.0385,8.0088]},"geometry":{"type":"Polygon","coordinates":[[[81.2413,7.7391],[81.227,7.781],[81.225,7.8235],[81.2327,7.8435],[81.2278,7.8671],[81.237,7.8887],[81.2369,7.9198],[81.2531,7.9363],[81.2747,7.9368],[81.2893,7.9466],[81.3079,7.9374],[81.34,7.9374],[81.3401,7.957],[81.3064,8.0294],[81.3116,8.252],[81.2881,8.2611],[81.2726,8.2412],[81.2658,8.241],[81.269,8.2348],[81.2503,8.2261],[81.2514,8.21],[81.2376,8.1943],[81.2429,8.1791],[81.2345,8.1741],[81.2326,8.1565],[81.208,8.1488],[81.1921,8.1543],[81.2069,8.163],[81.2134,8.1795],[81.2045,8.184],[81.2062,8.2156],[81.1994,8.2314],[81.1869,8.2274],[81.1662,8.2346],[81.1394,8.2609],[81.1241,8.263],[81.1056,8.256],[81.0776,8.2716],[81.0501,8.2722],[81.0363,8.2789],[80.9888,8.2731],[80.9801,8.3125],[80.9623,8.3237],[80.9521,8.3229],[80.9408,8.3425],[80.9308,8.3451],[80.9114,8.3264],[80.8991,8.2809],[80.8044,8.2785],[80.7878,8.2312],[80.7854,8.2041],[80.7594,8.1505],[80.7587,8.0686],[80.777,8.0659],[80.7497,8.0221],[80.7723,7.9956],[80.7795,7.9948],[80.7784,7.9682],[80.7879,7.9625],[80.7985,7.9606],[80.7991,7.9766],[80.8148,7.9835],[80.8256,7.9713],[80.84,7.9722],[80.8533,7.9627],[80.834,7.9542],[80.8196,7.9245],[80.811,7.852],[80.8024,7.822],[80.7935,7.8173],[80.7956,7.8049],[80.7688,7.8023],[80.7612,7.7922],[80.7659,7.7868],[80.7638,7.734],[80.7745,7.7019],[80.7698,7.6905],[80.761,7.6956],[80.7788,7.6779],[80.8048,7.6796],[80.8093,7.6717],[80.8369,7.6813],[80.8531,7.7011],[80.8555,7.6909],[80.8703,7.6895],[80.8769,7.6797],[80.8836,7.7151],[80.9065,7.7159],[80.9279,7.7083],[80.9891,7.7217],[81.0493,7.7188],[81.0687,7.7308],[81.0944,7.7252],[81.1176,7.6899],[81.1979,7.6611],[81.214,7.647],[81.2208,7.6537],[81.2226,7.6721],[81.2394,7.6798],[81.2394,7.7134],[81.2337,7.722],[81.2413,7.7391]]]}},{"type":"Feature","properties":{"district":"Puttalam","label":[79.9546,7.9186]},"geometry":{"type":"MultiPolygon","coordinates":[[[[79.7799,8.2621],[79.7854,8.2679],[79.7732,8.2791],[79.7746,8.2696],[79.7799,8.2621]]],[[[79.9198,8.5673],[79.9158,8.5485],[79.8709,8.5364],[79.8635,8.4514],[79.8473,8.4407],[79.8432,8.4231],[79.8466,8.351],[79.8395,8.3464],[79.8326,8.3253],[79.8377,8.3115],[79.8104,8.2389],[79.7895,8.2336],[79.8035,8.2308],[79.8008,8.2224],[79.7923,8.2282],[79.8201,8.2029],[79.8181,8.1699],[79.8342,8.1517],[79.8356,8.1371],[79.8208,8.1228],[79.8153,8.1002],[79.8029,8.0844],[79.7916,8.0848],[79.798,8.0722],[79.7894,8.0756],[79.8357,8.0142],[79.8336,8.001],[79.8193,7.9971],[79.8265,7.9703],[79.822,7.9581],[79.8258,7.923],[79.8204,7.9137],[79.8211,7.9611],[79.8091,7.9526],[79.8218,7.9674],[79.8227,7.9796],[79.7842,7.9794],[79.7572,7.9876],[79.7466,7.9939],[79.7367,8.0139],[79.7451,8.0356],[79.7418,8.0526],[79.7555,8.0633],[79.7374,8.0727],[79.732,8.0849],[79.7362,8.1128],[79.7271,8.1229],[79.731,8.1417],[79.7394,8.1441],[79.7465,8.1667],[79.7434,8.1762],[79.7493,8.1816],[79.7378,8.2017],[79.7559,8.2245],[79.7638,8.2161],[79.7703,8.2212],[79.7658,8.2415],[79.7768,8.2614],[79.7673,8.2623],[79.7401,8.2307],[79.7315,8.2282],[79.7404,8.2423],[79.7393,8.2503],[79.7528,8.2479],[79.7639,8.2681],[79.7566,8.2723],[79.7563,8.2642],[79.751,8.2646],[79.7587,8.2765],[79.7542,8.2901],[79.7676,8.3014],[79.7588,8.3034],[79.7788,8.3482],[79.7855,8.3703],[79.7794,8.3771],[79.7861,8.3841],[79.7769,8.3789],[79.7728,8.3684],[79.771,8.3429],[79.7434,8.2742],[79.7349,8.2355],[79.7135,8.2172],[79.6958,8.2103],[79.7093,8.2184],[79.7029,8.2192],[79.6927,8.2107],[79.7061,8.147],[79.7017,8.1149],[79.7075,8.0944],[79.7061,8.057],[79.7451,7.9341],[79.7945,7.7195],[79.8007,7.64],[79.7973,7.6127],[79.7861,7.6064],[79.7893,7.5389],[79.842,7.2734],[79.8534,7.2773],[79.8663,7.2709],[79.8758,7.2827],[79.8848,7.2739],[79.8979,7.2748],[79.8992,7.2814],[79.9054,7.274],[79.9075,7.2805],[79.9079,7.2653],[79.9162,7.2698],[79.915,7.2769],[79.9247,7.2777],[79.9273,7.2719],[79.924,7.2845],[79.9416,7.2765],[79.9424,7.281],[79.9375,7.3493],[79.9053,7.5058],[79.9005,7.5597],[79.909,7.5978],[79.9057,7.6166],[79.9214,7.6337],[79.9229,7.6453],[79.9338,7.6507],[79.9239,7.6556],[79.9306,7.6655],[79.9287,7.6746],[79.9459,7.682],[79.9482,7.676],[79.9594,7.6751],[79.9633,7.6868],[79.9409,7.6965],[79.954,7.702],[79.9553,7.72],[79.9757,7.7239],[79.9776,7.732],[79.9987,7.7431],[79.9936,7.7631],[80.0023,7.7786],[79.9944,7.7929],[79.999,7.8126],[80.0114,7.816],[80.0062,7.8313],[80.0374,7.8444],[80.0382,7.8605],[80.053,7.8733],[80.0663,7.8731],[80.0669,7.889],[80.0742,7.8926],[80.0723,7.9136],[80.0937,7.9214],[80.0928,7.9158],[80.0989,7.9143],[80.1087,7.9293],[80.1109,7.9501],[80.1222,7.9471],[80.1326,7.9348],[80.1484,7.9417],[80.1332,7.965],[80.1495,7.9974],[80.1437,8.0063],[80.1533,8.0662],[80.1285,8.0789],[80.1153,8.096],[80.1098,8.1418],[80.1002,8.1671],[80.1058,8.1893],[80.0967,8.2095],[80.0865,8.2107],[80.0795,8.2236],[80.0619,8.2198],[80.0378,8.2379],[80.0276,8.227],[80.0001,8.2285],[79.9957,8.2542],[79.9819,8.2773],[79.9748,8.3371],[79.9528,8.3694],[79.9562,8.3943],[79.9771,8.3975],[79.9905,8.4139],[79.9901,8.4232],[80.0197,8.445],[80.0319,8.4653],[80.0428,8.4934],[80.0324,8.5272],[79.9776,8.5529],[79.9651,8.5501],[79.949,8.5593],[79.9376,8.556],[79.9198,8.5673]]],[[[79.8009,8.3407],[79.8065,8.3198],[79.8113,8.3181],[79.8067,8.3244],[79.8129,8.3331],[79.8043,8.3363],[79.8115,8.3378],[79.8009,8.3407]]],[[[79.7979,8.4518],[79.8066,8.4493],[79.7904,8.4628],[79.7799,8.4928],[79.7874,8.5101],[79.7857,8.5335],[79.7777,8.4979],[79.7876,8.4667],[79.7979,8.4518]]]]}},{"type":"Feature","properties":{"district":"Ratnapura","label":[80.5898,6.5806]},"geometry":{"type":"Polygon","coordinates":[[[80.4953,6.3676],[80.5337,6.3743],[80.5338,6.3882],[80.5447,6.3891],[80.5496,6.3961],[80.5549,6.3895],[80.6188,6.3963],[80.6175,6.3711],[80.6065,6.3597],[80.6112,6.3459],[80.6613,6.3538],[80.6634,6.3398],[80.6572,6.3372],[80.6752,6.3218],[80.6697,6.3187],[80.6701,6.306],[80.704,6.3065],[80.798,6.2671],[80.8579,6.272],[80.8692,6.2667],[80.8835,6.2457],[80.8926,6.2491],[80.9104,6.2381],[80.9311,6.2401],[80.9397,6.2279],[80.9505,6.2348],[80.9413,6.2706],[80.9341,6.2729],[80.9311,6.2883],[80.9066,6.322],[80.9093,6.3326],[80.903,6.3439],[80.8654,6.357],[80.8625,6.3697],[80.8388,6.4017],[80.8444,6.407],[80.8379,6.427],[80.8428,6.4339],[80.8362,6.4405],[80.8431,6.4561],[80.8278,6.4901],[80.8636,6.5497],[80.8608,6.5604],[80.8661,6.5794],[80.8725,6.5819],[80.8696,6.5928],[80.8766,6.5939],[80.8756,6.6106],[80.9036,6.639],[80.9127,6.6718],[80.928,6.6876],[80.915,6.6948],[80.9079,6.6785],[80.8907,6.6756],[80.8808,6.6638],[80.8636,6.6656],[80.8574,6.6575],[80.8476,6.6666],[80.8297,6.6696],[80.8255,6.6896],[80.8118,6.7036],[80.8549,6.7194],[80.8503,6.7301],[80.8579,6.7415],[80.8545,6.7464],[80.8347,6.7455],[80.827,6.7617],[80.8115,6.7557],[80.8084,6.7919],[80.7893,6.774],[80.7745,6.7784],[80.7448,6.7583],[80.7315,6.7634],[80.7063,6.755],[80.6611,6.762],[80.6538,6.7512],[80.6354,6.7534],[80.5727,6.7639],[80.5444,6.7756],[80.5274,6.768],[80.4942,6.7849],[80.4886,6.7966],[80.5023,6.8085],[80.4921,6.8159],[80.496,6.8317],[80.4516,6.8331],[80.432,6.8481],[80.424,6.8398],[80.4,6.8597],[80.3889,6.85],[80.3796,6.8544],[80.3574,6.8497],[80.3405,6.8301],[80.3287,6.8363],[80.3108,6.8623],[80.2849,6.8555],[80.2822,6.8701],[80.2688,6.8743],[80.2508,6.9015],[80.241,6.9075],[80.2332,6.9031],[80.2306,6.9242],[80.224,6.9311],[80.1999,6.9037],[80.1889,6.8995],[80.175,6.8599],[80.1942,6.8515],[80.2022,6.8317],[80.2001,6.8159],[80.1872,6.8188],[80.1767,6.8121],[80.2041,6.7386],[80.2054,6.7305],[80.1987,6.7273],[80.2158,6.6919],[80.2494,6.6586],[80.255,6.627],[80.2825,6.6179],[80.3032,6.5959],[80.3146,6.5712],[80.2953,6.5641],[80.3045,6.5392],[80.313,6.5342],[80.3813,6.4256],[80.4191,6.3924],[80.4315,6.3893],[80.4405,6.3947],[80.4721,6.3782],[80.491,6.3801],[80.4953,6.3676]]]}},{"type":"Feature","properties":{"district":"Trincomalee","label":[81.0618,8.5697]},"geometry":{"type":"Polygon","coordinates":[[[80.7755,8.9467],[80.753,8.9051],[80.783,8.9202],[80.8123,8.9153],[80.8535,8.887],[80.8715,8.8821],[80.9126,8.8369],[80.9109,8.8236],[80.8831,8.7886],[80.8796,8.7685],[80.8788,8.7527],[80.8906,8.7434],[80.8914,8.7225],[80.9134,8.681],[80.8934,8.6461],[80.8939,8.6219],[80.9159,8.6051],[80.9171,8.5848],[80.944,8.5518],[80.9472,8.5075],[80.9633,8.4986],[80.9633,8.4857],[80.9863,8.4847],[80.9909,8.4748],[80.9717,8.4686],[80.9726,8.4601],[80.9538,8.4392],[80.9273,8.3735],[80.9242,8.3369],[80.9308,8.3451],[80.9408,8.3425],[80.9521,8.3229],[80.9623,8.3237],[80.9801,8.3125],[80.9888,8.2731],[81.0363,8.2789],[81.0501,8.2722],[81.0776,8.2716],[81.1056,8.256],[81.1241,8.263],[81.1394,8.2609],[81.1662,8.2346],[81.1869,8.2274],[81.1994,8.2314],[81.2062,8.2156],[81.2045,8.184],[81.2134,8.1795],[81.2069,8.163],[81.1973,8.1601],[81.193,8.1512],[81.208,8.1488],[81.2326,8.1565],[81.2345,8.1741],[81.2429,8.1791],[81.2376,8.1943],[81.2514,8.21],[81.2503,8.2261],[81.269,8.2348],[81.2658,8.241],[81.2726,8.2412],[81.2881,8.2611],[81.3116,8.252],[81.3303,8.2657],[81.3538,8.2693],[81.3587,8.2649],[81.3557,8.2573],[81.4078,8.2485],[81.389,8.3277],[81.3933,8.3592],[81.3815,8.377],[81.3482,8.5015],[81.3171,8.5249],[81.3025,8.5094],[81.2805,8.5071],[81.2881,8.4866],[81.2787,8.4652],[81.2441,8.4619],[81.2495,8.4596],[81.2378,8.4541],[81.2431,8.4619],[81.2227,8.4607],[81.2036,8.4692],[81.1911,8.5056],[81.1781,8.5119],[81.1497,8.5072],[81.1389,8.4886],[81.1224,8.5025],[81.1214,8.5086],[81.1339,8.5118],[81.1549,8.5451],[81.1776,8.5257],[81.1798,8.5362],[81.1868,8.5342],[81.1858,8.513],[81.1924,8.5086],[81.2128,8.5092],[81.2052,8.5274],[81.2141,8.5312],[81.2012,8.5296],[81.2029,8.5425],[81.1917,8.5443],[81.2062,8.5548],[81.193,8.5537],[81.1916,8.5628],[81.2003,8.5632],[81.1923,8.5715],[81.2003,8.5791],[81.2029,8.5682],[81.2199,8.5842],[81.2075,8.5653],[81.2277,8.5735],[81.2346,8.5612],[81.2218,8.5444],[81.2321,8.5476],[81.2266,8.5395],[81.2322,8.5361],[81.2463,8.5485],[81.2469,8.5599],[81.2388,8.5712],[81.246,8.5826],[81.2405,8.5763],[81.2328,8.5804],[81.2196,8.6112],[81.2269,8.6287],[81.2255,8.6532],[81.2052,8.6754],[81.1761,8.7338],[81.1206,8.7905],[81.1,8.8208],[81.0859,8.8605],[81.0782,8.8622],[81.0802,8.8678],[81.0679,8.8573],[81.0476,8.8724],[81.0301,8.8921],[81.0074,8.9375],[80.9966,8.9419],[80.9659,8.9848],[80.9592,8.9711],[80.965,8.9535],[80.9401,8.9416],[80.9472,8.938],[80.941,8.9282],[80.9316,8.9374],[80.9249,8.9287],[80.9228,8.9374],[80.9139,8.9372],[80.9116,8.9511],[80.9053,8.948],[80.9099,8.9567],[80.9061,8.9682],[80.9264,8.964],[80.9307,8.9711],[80.9163,8.9786],[80.9269,8.9921],[80.9172,8.9846],[80.9018,8.9849],[80.9001,8.9787],[80.8896,8.9812],[80.8697,8.9595],[80.8334,8.9605],[80.7755,8.9467]]]}},{"type":"Feature","properties":{"district":"Vavuniya","label":[80.4826,8.8338]},"geometry":{"type":"Polygon","coordinates":[[[80.2354,8.6804],[80.2372,8.629],[80.2499,8.6162],[80.2745,8.611],[80.2885,8.5606],[80.3376,8.546],[80.3518,8.5728],[80.3696,8.575],[80.38,8.5838],[80.381,8.6218],[80.3994,8.6341],[80.4105,8.6595],[80.4219,8.662],[80.4242,8.674],[80.4444,8.6891],[80.4513,8.6925],[80.5067,8.6584],[80.5197,8.6588],[80.5302,8.6728],[80.57,8.7004],[80.5736,8.7167],[80.5893,8.7221],[80.6012,8.7444],[80.6185,8.7526],[80.6339,8.7799],[80.6531,8.7948],[80.6271,8.8371],[80.5923,8.8479],[80.5954,8.8697],[80.6675,8.8714],[80.7119,8.8985],[80.753,8.9051],[80.787,9.0102],[80.7176,9.0515],[80.6852,9.0308],[80.6772,9.0317],[80.6916,9.0745],[80.6823,9.0831],[80.6681,9.0747],[80.6521,9.0782],[80.6465,9.117],[80.6371,9.1204],[80.6342,9.1159],[80.6224,9.1239],[80.5817,9.126],[80.5849,9.1108],[80.5599,9.1074],[80.53,9.0761],[80.5129,9.0766],[80.5102,9.0936],[80.4912,9.1176],[80.404,9.1152],[80.4043,9.0908],[80.4262,9.0909],[80.4338,9.03],[80.3909,8.9911],[80.3401,8.959],[80.3802,8.9364],[80.4025,8.8569],[80.3713,8.84],[80.3175,8.8306],[80.2974,8.8203],[80.2297,8.8279],[80.198,8.7647],[80.1778,8.7746],[80.1709,8.7488],[80.1942,8.7335],[80.2354,8.6804]]]}}]}